NORAD_CAT_ID,OBJECT_NAME,OBJECT_TYPE,EPOCH,MEAN_MOTION,ECCENTRICITY,INCLINATION,RA_OF_ASC_NODE,ARG_OF_PERICENTER,MEAN_ANOMALY,BSTAR,MEAN_MOTION_DOT,MEAN_MOTION_DDOT,TLE_LINE0,TLE_LINE1,TLE_LINE2,SEMIMAJOR_AXIS,PERIOD,APOGEE,PERIGEE,DECAYED
53562.0,STARLINK-4565,PAYLOAD,2022-10-02 22:00:00,15.73217339,0.0004112,53.2149,296.3443,6.6107,348.3126,0.00036218,0.00050571,0.0,0 STARLINK-4565,1 53562U 22101AM  22275.91667824  .00050571  00000-0  36218-3 0  9999,2 53562  53.2149 296.3443 0004112   6.6107 348.3126 15.73217339  1308,6727.846,91.532,352.477,346.944,0.0
53562.0,STARLINK-4565,PAYLOAD,2022-10-03 06:00:00,15.73257388,0.000421,53.2147,294.6962,5.7157,78.18,-0.00034591,-0.00049035,0.0,0 STARLINK-4565,1 53562U 22101AM  22276.25001157 -.00049035  00000-0 -34591-3 0  9995,2 53562  53.2147 294.6962 0004210   5.7157  78.1800 15.73257388  7027,6727.732,91.53,352.42900000000014,346.764,0.0
53562.0,STARLINK-4565,PAYLOAD,2022-10-03 14:00:01,15.73218753,0.0004296,53.214,293.0472,3.9068,168.9805,0.0005091,0.00071525,0.0,0 STARLINK-4565,1 53562U 22101AM  22276.58334491  .00071525  00000-0  50910-3 0  9991,2 53562  53.2140 293.0472 0004296   3.9068 168.9805 15.73218753  7075,6727.842,91.532,352.597,346.816,0.0
53562.0,STARLINK-4565,PAYLOAD,2022-10-03 22:00:00,15.73250499,0.0003985,53.2142,291.3955,3.7919,258.0821,-7.918399999999999e-05,-0.00011752,0.0,0 STARLINK-4565,1 53562U 22101AM  22276.91667824 -.00011752  00000-0 -79184-4 0  9990,2 53562  53.2142 291.3955 0003985   3.7919 258.0821 15.73250499  7129,6727.751,91.53,352.297,346.935,0.0
53562.0,STARLINK-4565,PAYLOAD,2022-10-04 14:00:01,15.73173362,0.0004233,53.2141,288.0982,1.5873,78.2356,0.0001381,0.00018787,0.0,0 STARLINK-4565,1 53562U 22101AM  22277.58334491  .00018787  00000-0  13810-3 0  9991,2 53562  53.2141 288.0982 0004233   1.5873  78.2356 15.73173362  1305,6727.971,91.535,352.684,346.98800000000006,0.0
53562.0,STARLINK-4565,PAYLOAD,2022-10-04 22:00:00,15.73196489,0.0003997,53.214,286.4468,2.7110000000000003,166.0171,0.00014359,0.0001958,0.0,0 STARLINK-4565,1 53562U 22101AM  22277.91667824  .00019580  00000-0  14359-3 0  9998,2 53562  53.2140 286.4468 0003997   2.7110 166.0171 15.73196489  1304,6727.905,91.533,352.459,347.081,0.0
53562.0,STARLINK-4565,PAYLOAD,2022-10-05 14:00:01,15.73271097,0.0004346,53.2145,283.1454,0.9363,345.6999,-0.0015795,-0.00217492,0.0,0 STARLINK-4565,1 53562U 22101AM  22278.58335648 -.00217492  00000-0 -15795-2 0  9996,2 53562  53.2145 283.1454 0004346   0.9363 345.6999 15.73271097  7383,6727.691999999999,91.529,352.481,346.634,0.0
53562.0,STARLINK-4565,PAYLOAD,2022-10-05 22:00:00,15.72856997,0.0004031,53.2159,281.4894,4.0508,71.5084,0.0033594,0.0049232,0.0,0 STARLINK-4565,1 53562U 22101AM  22278.91667824  .00492320  00000-0  33594-2 0  9997,2 53562  53.2159 281.4894 0004031   4.0508  71.5084 15.72856997  1307,6728.873000000001,91.553,353.451,348.026,0.0
53562.0,STARLINK-4565,PAYLOAD,2022-10-06 06:00:00,15.73195268,0.0004115,53.2131,279.8502,3.4523,160.97799999999995,6.7681e-05,8.886e-05,0.0,0 STARLINK-4565,1 53562U 22101AM  22279.25001157  .00008886  00000-0  67681-4 0  9992,2 53562  53.2131 279.8502 0004115   3.4523 160.9780 15.73195268  7497,6727.909000000002,91.533,352.542,347.005,0.0
53562.0,STARLINK-4565,PAYLOAD,2022-10-06 14:00:01,15.7326104,0.0004117,53.213,278.2006,2.5903,250.7525,-0.00048354,-0.00068153,0.0,0 STARLINK-4565,1 53562U 22101AM  22279.58334491 -.00068153  00000-0 -48354-3 0  9998,2 53562  53.2130 278.2006 0004117   2.5903 250.7525 15.73261040  1303,6727.721,91.53,352.356,346.816,0.0
53562.0,STARLINK-4565,PAYLOAD,2022-10-06 22:42:55,15.73191698,0.0003861,53.2135,276.4007,1.8995,149.2466,9.1031e-05,0.0001217,0.0,0 STARLINK-4565,1 53562U 22101AM  22279.94646991  .00012170  00000-0  91031-4 0  9996,2 53562  53.2135 276.4007 0003861   1.8995 149.2466 15.73191698  1304,6727.919,91.534,352.381,347.186,0.0
53562.0,STARLINK-4565,PAYLOAD,2022-10-07 06:00:00,15.73310564,0.0003989,53.2151,274.8962,0.9796,70.2553,-0.0030142,-0.00406116,0.0,0 STARLINK-4565,1 53562U 22101AM  22280.25001157 -.00406116  00000-0 -30142-2 0  9994,2 53562  53.2151 274.8962 0003989   0.9796  70.2553 15.73310564  7653,6727.58,91.527,352.129,346.761,0.0
53562.0,STARLINK-4565,PAYLOAD,2022-10-07 14:00:01,15.73214629,0.0004091,53.2121,273.2516,3.4479,156.6888,-0.00025432,-0.00036204,0.0,0 STARLINK-4565,1 53562U 22101AM  22280.58334491 -.00036204  00000-0 -25432-3 0  9994,2 53562  53.2121 273.2516 0004091   3.4479 156.6888 15.73214629  7700,6727.853,91.532,352.471,346.966,0.0
53562.0,STARLINK-4565,PAYLOAD,2022-10-07 22:00:00,15.73214599,0.0003796999999999,53.2122,271.6001,6.7671,242.3064,-0.00026135,-0.0003718,0.0,0 STARLINK-4565,1 53562U 22101AM  22280.91667824 -.00037180  00000-0 -26135-3 0  9995,2 53562  53.2122 271.6001 0003797   6.7671 242.3064 15.73214599  1309,6727.854,91.532,352.273,347.164,0.0
53562.0,STARLINK-4565,PAYLOAD,2022-10-08 14:00:01,15.73148081,0.0004032,53.2124,268.3024,8.8342,58.0502,0.00043771,0.00061141,0.0,0 STARLINK-4565,1 53562U 22101AM  22281.58334491  .00061141  00000-0  43771-3 0  9997,2 53562  53.2124 268.3024 0004032   8.8342  58.0502 15.73148081  7868,6728.043000000002,91.536,352.621,347.195,0.0
53562.0,STARLINK-4565,PAYLOAD,2022-10-08 22:00:00,15.73226612,0.0003743,53.2126,266.6511,8.7535,147.0267,-0.00020408,-0.00029211,0.0,0 STARLINK-4565,1 53562U 22101AM  22281.91667824 -.00029211  00000-0 -20408-3 0  9999,2 53562  53.2126 266.6511 0003743   8.7535 147.0267 15.73226612  1300,6727.819,91.532,352.20300000000015,347.166,0.0
53562.0,STARLINK-4565,PAYLOAD,2022-10-09 06:00:00,15.73165441,0.0003984,53.2123,265.0034,6.5008,238.2391,0.00042455,0.00059315,0.0,0 STARLINK-4565,1 53562U 22101AM  22282.25001157  .00059315  00000-0  42455-3 0  9990,2 53562  53.2123 265.0034 0003984   6.5008 238.2391 15.73165441  7969,6727.994000000002,91.535,352.539,347.17800000000005,0.0
53562.0,STARLINK-4565,PAYLOAD,2022-10-09 14:00:01,15.73253031,0.0003883,53.2119,263.3531,4.8566,328.784,-4.3369e-06,-1.235e-05,0.0,0 STARLINK-4565,1 53562U 22101AM  22282.58334491 -.00001235  00000-0 -43369-5 0  9993,2 53562  53.2119 263.3531 0003883   4.8566 328.7840 15.73253031  1304,6727.744000000002,91.53,352.221,346.997,0.0
53562.0,STARLINK-4565,PAYLOAD,2022-10-09 22:00:00,15.73253331,0.0003595,53.2122,261.7018,6.2087,56.4273,-0.00015467,-0.00022331,0.0,0 STARLINK-4565,1 53562U 22101AM  22282.91667824 -.00022331  00000-0 -15467-3 0  9995,2 53562  53.2122 261.7018 0003595   6.2087  56.4273 15.73253331  1302,6727.743,91.53,352.027,347.19,0.0
53562.0,STARLINK-4565,PAYLOAD,2022-10-10 06:00:00,15.73237448,0.0003848,53.2132,260.053,5.4746,146.1475,-0.00064581,-0.0009048,0.0,0 STARLINK-4565,1 53562U 22101AM  22283.25001157 -.00090480  00000-0 -64581-3 0  9995,2 53562  53.2132 260.0530 0003848   5.4746 146.1475 15.73237448  8127,6727.788000000001,91.531,352.242,347.065,0.0
53562.0,STARLINK-4565,PAYLOAD,2022-10-10 14:00:01,15.73244965,0.0003897,53.2147,258.3994,4.6527,235.8971,-0.0018433,-0.00252361,0.0,0 STARLINK-4565,1 53562U 22101AM  22283.58334491 -.00252361  00000-0 -18433-2 0  9993,2 53562  53.2147 258.3994 0003897   4.6527 235.8971 15.73244965  1301,6727.767,91.531,352.254,347.01,0.0
53562.0,STARLINK-4565,PAYLOAD,2022-10-10 22:00:01,15.73079296,0.0003918,53.2166,256.7451,7.7603,321.7213,0.0014092,0.00200958,0.0,0 STARLINK-4565,1 53562U 22101AM  22283.91668981  .00200958  00000-0  14092-2 0  9994,2 53562  53.2166 256.7451 0003918   7.7603 321.7213 15.73079296  1302,6728.239000000001,91.54,352.74,347.468,0.0
53562.0,STARLINK-4565,PAYLOAD,2022-10-11 06:00:00,15.73157562,0.000377,53.2137,255.104,4.1891,54.1997,-0.0003894,-0.00054844,0.0,0 STARLINK-4565,1 53562U 22101AM  22284.25001157 -.00054844  00000-0 -38940-3 0  9990,2 53562  53.2137 255.1040 0003770   4.1891  54.1997 15.73157562  8286,6728.016,91.536,352.418,347.345,0.0
53562.0,STARLINK-4565,PAYLOAD,2022-10-11 14:00:01,15.73135772,0.0003409,53.2164,253.4468,6.1183,141.1361,0.00078584,0.00110849,0.0,0 STARLINK-4565,1 53562U 22101AM  22284.58334491  .00110849  00000-0  78584-3 0  9990,2 53562  53.2164 253.4468 0003409   6.1183 141.1361 15.73135772  1303,6728.078,91.537,352.237,347.65,0.0
53562.0,STARLINK-4565,PAYLOAD,2022-10-11 22:00:00,15.73143854,0.0003429,53.2125,251.8043,7.7265,228.3242,0.0007363,0.00103771,0.0,0 STARLINK-4565,1 53562U 22101AM  22284.91667824  .00103771  00000-0  73630-3 0  9999,2 53562  53.2125 251.8043 0003429   7.7265 228.3242 15.73143854  8382,6728.055,91.536,352.227,347.61300000000006,0.0
53562.0,STARLINK-4565,PAYLOAD,2022-10-12 14:00:01,15.73281164,0.0003655,53.215,248.5016,4.4103,49.5627,-0.00073588,-0.00103047,0.0,0 STARLINK-4565,1 53562U 22101AM  22285.58334491 -.00103047  00000-0 -73588-3 0  9994,2 53562  53.2150 248.5016 0003655   4.4103  49.5627 15.73281164  1301,6727.6640000000025,91.528,351.98800000000006,347.07,0.0
53562.0,STARLINK-4565,PAYLOAD,2022-10-12 22:00:00,15.73203474,0.0003561,53.2167,246.8476,4.2244,138.7347,1.82e-05,1.932e-05,0.0,0 STARLINK-4565,1 53562U 22101AM  22285.91667824  .00001932  00000-0  18200-4 0  9999,2 53562  53.2167 246.8476 0003561   4.2244 138.7347 15.73203474  1308,6727.885,91.533,352.146,347.35400000000016,0.0
53562.0,STARLINK-4565,PAYLOAD,2022-10-13 06:00:00,15.73238245,0.0003605,53.215,245.2044,8.9181,222.9351,-0.00021201,-0.00030331,0.0,0 STARLINK-4565,1 53562U 22101AM  22286.25001157 -.00030331  00000-0 -21201-3 0  9999,2 53562  53.2150 245.2044 0003605   8.9181 222.9351 15.73238245  8597,6727.786,91.531,352.077,347.226,0.0
53562.0,STARLINK-4565,PAYLOAD,2022-10-13 14:00:01,15.73219434,0.0003418,53.2162,243.5502,6.2876,314.5311,-0.00016844,-0.00024223,0.0,0 STARLINK-4565,1 53562U 22101AM  22286.58334491 -.00024223  00000-0 -16844-3 0  9995,2 53562  53.2162 243.5502 0003418   6.2876 314.5311 15.73219434  1309,6727.84,91.532,352.004,347.405,0.0
